{
  "type": "FeatureCollection",
  "name": "edifice_graph",
  "crs": {
    "type": "name",
    "properties": {
      "name": "urn:ogc:def:crs:EPSG::3857"
    }
  },
  "features": [
    {
      "type": "Feature",
      "properties": {
        "id": 0
      },
      "geometry": {
        "type": "Point",
        "coordinates": [
          0.86899196069036,
          -0.924254927466803
        ]
      }
    },
    {
      "type": "Feature",
      "properties": {
        "id": 1
      },
      "geometry": {
        "type": "Point",
        "coordinates": [
          0.589298755262861,
          6.028119036016777
        ]
      }
    },
    {
      "type": "Feature",
      "properties": {
        "id": 2
      },
      "geometry": {
        "type": "Point",
        "coordinates": [
          3.865704875985008,
          6.307812241444278
        ]
      }
    },
    {
      "type": "Feature",
      "properties": {
        "id": 3
      },
      "geometry": {
        "type": "Point",
        "coordinates": [
          4.105441909208581,
          -0.884298755262874
        ]
      }
    },
    {
      "type": "Feature",
      "properties": {
        "id": 4
      },
      "geometry": {
        "type": "Point",
        "coordinates": [
          7.741453579766086,
          -0.764430238651089
        ]
      }
    },
    {
      "type": "Feature",
      "properties": {
        "id": 5
      },
      "geometry": {
        "type": "Point",
        "coordinates": [
          11.816983144566803,
          -0.72447406644716
        ]
      }
    },
    {
      "type": "Feature",
      "properties": {
        "id": 6
      },
      "geometry": {
        "type": "Point",
        "coordinates": [
          11.697114627955019,
          1.992545643419987
        ]
      }
    },
    {
      "type": "Feature",
      "properties": {
        "id": 7
      },
      "geometry": {
        "type": "Point",
        "coordinates": [
          13.97461644357895,
          2.192326504439629
        ]
      }
    },
    {
      "type": "Feature",
      "properties": {
        "id": 8
      },
      "geometry": {
        "type": "Point",
        "coordinates": [
          13.97461644357895,
          -6.198469658385383
        ]
      }
    },
    {
      "type": "Feature",
      "properties": {
        "id": 9
      },
      "geometry": {
        "type": "Point",
        "coordinates": [
          8.021146785193585,
          -6.438206691608952
        ]
      }
    },
    {
      "type": "Feature",
      "properties": {
        "id": 10
      },
      "geometry": {
        "type": "Point",
        "coordinates": [
          4.744740664471438,
          -6.518119036016811
        ]
      }
    },
    {
      "type": "Feature",
      "properties": {
        "id": 11
      },
      "geometry": {
        "type": "Point",
        "coordinates": [
          0.749123444078576,
          -6.558075208220741
        ]
      }
    },
    {
      "type": "Feature",
      "properties": {
        "id": 12
      },
      "geometry": {
        "type": "Point",
        "coordinates": [
          -3.446274637333932,
          -6.59803138042467
        ]
      }
    },
    {
      "type": "Feature",
      "properties": {
        "id": 13
      },
      "geometry": {
        "type": "Point",
        "coordinates": [
          -8.920270229272154,
          -6.59803138042467
        ]
      }
    },
    {
      "type": "Feature",
      "properties": {
        "id": 14
      },
      "geometry": {
        "type": "Point",
        "coordinates": [
          -10.997991183876442,
          -4.120748703781095
        ]
      }
    },
    {
      "type": "Feature",
      "properties": {
        "id": 15
      },
      "geometry": {
        "type": "Point",
        "coordinates": [
          -13.595142377131804,
          -0.524693205427518
        ]
      }
    },
    {
      "type": "Feature",
      "properties": {
        "id": 16
      },
      "geometry": {
        "type": "Point",
        "coordinates": [
          -13.39536151611216,
          3.590792531577131
        ]
      }
    },
    {
      "type": "Feature",
      "properties": {
        "id": 17
      },
      "geometry": {
        "type": "Point",
        "coordinates": [
          -13.355405343908231,
          6.147987552628564
        ]
      }
    },
    {
      "type": "Feature",
      "properties": {
        "id": 18
      },
      "geometry": {
        "type": "Point",
        "coordinates": [
          -9.839262189962511,
          6.147987552628564
        ]
      }
    },
    {
      "type": "Feature",
      "properties": {
        "id": 19
      },
      "geometry": {
        "type": "Point",
        "coordinates": [
          -5.923557313977506,
          6.227899897036421
        ]
      }
    },
    {
      "type": "Feature",
      "properties": {
        "id": 20
      },
      "geometry": {
        "type": "Point",
        "coordinates": [
          -5.723776452957864,
          2.911537604110345
        ]
      }
    },
    {
      "type": "Feature",
      "properties": {
        "id": 21
      },
      "geometry": {
        "type": "Point",
        "coordinates": [
          -5.683820280753935,
          -0.045219138980373
        ]
      }
    },
    {
      "type": "Feature",
      "properties": {
        "id": 22
      },
      "geometry": {
        "type": "Point",
        "coordinates": [
          -5.603907936346078,
          -3.920967842761451
        ]
      }
    },
    {
      "type": "Feature",
      "properties": {
        "id": 23
      },
      "geometry": {
        "type": "Point",
        "coordinates": [
          -2.487326504439645,
          -3.801099326149666
        ]
      }
    },
    {
      "type": "Feature",
      "properties": {
        "id": 24
      },
      "geometry": {
        "type": "Point",
        "coordinates": [
          -2.687107365459287,
          -0.644561722039303
        ]
      }
    },
    {
      "type": "Feature",
      "properties": {
        "id": 0,
        "startid": 0,
        "endid": 1
      },
      "geometry": {
        "type": "LineString",
        "coordinates": [
          [
            0.86899196069036,
            -0.924254927466803
          ],
          [
            0.589298755262861,
            6.028119036016777
          ]
        ]
      }
    },
    {
      "type": "Feature",
      "properties": {
        "id": 1,
        "startid": 1,
        "endid": 2
      },
      "geometry": {
        "type": "LineString",
        "coordinates": [
          [
            0.589298755262861,
            6.028119036016777
          ],
          [
            3.865704875985008,
            6.307812241444278
          ]
        ]
      }
    },
    {
      "type": "Feature",
      "properties": {
        "id": 2,
        "startid": 2,
        "endid": 3
      },
      "geometry": {
        "type": "LineString",
        "coordinates": [
          [
            3.865704875985008,
            6.307812241444278
          ],
          [
            4.105441909208581,
            -0.884298755262874
          ]
        ]
      }
    },
    {
      "type": "Feature",
      "properties": {
        "id": 3,
        "startid": 3,
        "endid": 4
      },
      "geometry": {
        "type": "LineString",
        "coordinates": [
          [
            4.105441909208581,
            -0.884298755262874
          ],
          [
            7.741453579766086,
            -0.764430238651089
          ]
        ]
      }
    },
    {
      "type": "Feature",
      "properties": {
        "id": 4,
        "startid": 4,
        "endid": 5
      },
      "geometry": {
        "type": "LineString",
        "coordinates": [
          [
            7.741453579766086,
            -0.764430238651089
          ],
          [
            11.816983144566803,
            -0.72447406644716
          ]
        ]
      }
    },
    {
      "type": "Feature",
      "properties": {
        "id": 5,
        "startid": 5,
        "endid": 6
      },
      "geometry": {
        "type": "LineString",
        "coordinates": [
          [
            11.816983144566803,
            -0.72447406644716
          ],
          [
            11.697114627955019,
            1.992545643419987
          ]
        ]
      }
    },
    {
      "type": "Feature",
      "properties": {
        "id": 6,
        "startid": 6,
        "endid": 7
      },
      "geometry": {
        "type": "LineString",
        "coordinates": [
          [
            11.697114627955019,
            1.992545643419987
          ],
          [
            13.97461644357895,
            2.192326504439629
          ]
        ]
      }
    },
    {
      "type": "Feature",
      "properties": {
        "id": 7,
        "startid": 7,
        "endid": 8
      },
      "geometry": {
        "type": "LineString",
        "coordinates": [
          [
            13.97461644357895,
            2.192326504439629
          ],
          [
            13.97461644357895,
            -6.198469658385383
          ]
        ]
      }
    },
    {
      "type": "Feature",
      "properties": {
        "id": 8,
        "startid": 8,
        "endid": 9
      },
      "geometry": {
        "type": "LineString",
        "coordinates": [
          [
            13.97461644357895,
            -6.198469658385383
          ],
          [
            8.021146785193585,
            -6.438206691608952
          ]
        ]
      }
    },
    {
      "type": "Feature",
      "properties": {
        "id": 9,
        "startid": 9,
        "endid": 10
      },
      "geometry": {
        "type": "LineString",
        "coordinates": [
          [
            8.021146785193585,
            -6.438206691608952
          ],
          [
            4.744740664471438,
            -6.518119036016811
          ]
        ]
      }
    },
    {
      "type": "Feature",
      "properties": {
        "id": 10,
        "startid": 10,
        "endid": 11
      },
      "geometry": {
        "type": "LineString",
        "coordinates": [
          [
            4.744740664471438,
            -6.518119036016811
          ],
          [
            0.749123444078576,
            -6.558075208220741
          ]
        ]
      }
    },
    {
      "type": "Feature",
      "properties": {
        "id": 11,
        "startid": 11,
        "endid": 12
      },
      "geometry": {
        "type": "LineString",
        "coordinates": [
          [
            0.749123444078576,
            -6.558075208220741
          ],
          [
            -3.446274637333932,
            -6.59803138042467
          ]
        ]
      }
    },
    {
      "type": "Feature",
      "properties": {
        "id": 12,
        "startid": 12,
        "endid": 13
      },
      "geometry": {
        "type": "LineString",
        "coordinates": [
          [
            -3.446274637333932,
            -6.59803138042467
          ],
          [
            -8.920270229272154,
            -6.59803138042467
          ]
        ]
      }
    },
    {
      "type": "Feature",
      "properties": {
        "id": 13,
        "startid": 13,
        "endid": 14
      },
      "geometry": {
        "type": "LineString",
        "coordinates": [
          [
            -8.920270229272154,
            -6.59803138042467
          ],
          [
            -10.997991183876442,
            -4.120748703781095
          ]
        ]
      }
    },
    {
      "type": "Feature",
      "properties": {
        "id": 14,
        "startid": 14,
        "endid": 15
      },
      "geometry": {
        "type": "LineString",
        "coordinates": [
          [
            -10.997991183876442,
            -4.120748703781095
          ],
          [
            -13.595142377131804,
            -0.524693205427518
          ]
        ]
      }
    },
    {
      "type": "Feature",
      "properties": {
        "id": 15,
        "startid": 15,
        "endid": 16
      },
      "geometry": {
        "type": "LineString",
        "coordinates": [
          [
            -13.595142377131804,
            -0.524693205427518
          ],
          [
            -13.39536151611216,
            3.590792531577131
          ]
        ]
      }
    },
    {
      "type": "Feature",
      "properties": {
        "id": 16,
        "startid": 16,
        "endid": 17
      },
      "geometry": {
        "type": "LineString",
        "coordinates": [
          [
            -13.39536151611216,
            3.590792531577131
          ],
          [
            -13.355405343908231,
            6.147987552628564
          ]
        ]
      }
    },
    {
      "type": "Feature",
      "properties": {
        "id": 17,
        "startid": 17,
        "endid": 18
      },
      "geometry": {
        "type": "LineString",
        "coordinates": [
          [
            -13.355405343908231,
            6.147987552628564
          ],
          [
            -9.839262189962511,
            6.147987552628564
          ]
        ]
      }
    },
    {
      "type": "Feature",
      "properties": {
        "id": 18,
        "startid": 18,
        "endid": 19
      },
      "geometry": {
        "type": "LineString",
        "coordinates": [
          [
            -9.839262189962511,
            6.147987552628564
          ],
          [
            -5.923557313977506,
            6.227899897036421
          ]
        ]
      }
    },
    {
      "type": "Feature",
      "properties": {
        "id": 19,
        "startid": 19,
        "endid": 20
      },
      "geometry": {
        "type": "LineString",
        "coordinates": [
          [
            -5.923557313977506,
            6.227899897036421
          ],
          [
            -5.723776452957864,
            2.911537604110345
          ]
        ]
      }
    },
    {
      "type": "Feature",
      "properties": {
        "id": 20,
        "startid": 20,
        "endid": 21
      },
      "geometry": {
        "type": "LineString",
        "coordinates": [
          [
            -5.723776452957864,
            2.911537604110345
          ],
          [
            -5.683820280753935,
            -0.045219138980373
          ]
        ]
      }
    },
    {
      "type": "Feature",
      "properties": {
        "id": 21,
        "startid": 21,
        "endid": 22
      },
      "geometry": {
        "type": "LineString",
        "coordinates": [
          [
            -5.683820280753935,
            -0.045219138980373
          ],
          [
            -5.603907936346078,
            -3.920967842761451
          ]
        ]
      }
    },
    {
      "type": "Feature",
      "properties": {
        "id": 22,
        "startid": 22,
        "endid": 23
      },
      "geometry": {
        "type": "LineString",
        "coordinates": [
          [
            -5.603907936346078,
            -3.920967842761451
          ],
          [
            -2.487326504439645,
            -3.801099326149666
          ]
        ]
      }
    },
    {
      "type": "Feature",
      "properties": {
        "id": 23,
        "startid": 23,
        "endid": 24
      },
      "geometry": {
        "type": "LineString",
        "coordinates": [
          [
            -2.487326504439645,
            -3.801099326149666
          ],
          [
            -2.687107365459287,
            -0.644561722039303
          ]
        ]
      }
    }
  ]
}